<?xml version="1.0" encoding="UTF-8"?>
<gpx version="1.1" creator="Bikr sample" xmlns="http://www.topografix.com/GPX/1/1">
  <metadata><name>Vistula Loop</name></metadata>
  <trk>
    <name>Vistula Loop</name>
    <type>cycling</type>
    <trkseg>
      <trkpt lat="50.0540000" lon="19.9360000"><ele>205.0</ele><time>2026-09-14T09:00:00Z</time></trkpt>
      <trkpt lat="50.0539694" lon="19.9361633"><ele>205.8</ele><time>2026-09-14T09:00:02Z</time></trkpt>
      <trkpt lat="50.0539388" lon="19.9363265"><ele>206.6</ele><time>2026-09-14T09:00:04Z</time></trkpt>
      <trkpt lat="50.0539082" lon="19.9364898"><ele>207.4</ele><time>2026-09-14T09:00:06Z</time></trkpt>
      <trkpt lat="50.0538776" lon="19.9366531"><ele>208.3</ele><time>2026-09-14T09:00:08Z</time></trkpt>
      <trkpt lat="50.0538469" lon="19.9368163"><ele>209.1</ele><time>2026-09-14T09:00:10Z</time></trkpt>
      <trkpt lat="50.0538163" lon="19.9369796"><ele>209.8</ele><time>2026-09-14T09:00:12Z</time></trkpt>
      <trkpt lat="50.0537857" lon="19.9371429"><ele>210.6</ele><time>2026-09-14T09:00:14Z</time></trkpt>
      <trkpt lat="50.0537551" lon="19.9373061"><ele>211.4</ele><time>2026-09-14T09:00:16Z</time></trkpt>
      <trkpt lat="50.0537245" lon="19.9374694"><ele>212.2</ele><time>2026-09-14T09:00:18Z</time></trkpt>
      <trkpt lat="50.0536939" lon="19.9376327"><ele>212.9</ele><time>2026-09-14T09:00:20Z</time></trkpt>
      <trkpt lat="50.0536633" lon="19.9377959"><ele>213.6</ele><time>2026-09-14T09:00:22Z</time></trkpt>
      <trkpt lat="50.0536327" lon="19.9379592"><ele>214.3</ele><time>2026-09-14T09:00:24Z</time></trkpt>
      <trkpt lat="50.0536020" lon="19.9381224"><ele>215.0</ele><time>2026-09-14T09:00:26Z</time></trkpt>
      <trkpt lat="50.0535714" lon="19.9382857"><ele>215.7</ele><time>2026-09-14T09:00:28Z</time></trkpt>
      <trkpt lat="50.0535408" lon="19.9384490"><ele>216.3</ele><time>2026-09-14T09:00:30Z</time></trkpt>
      <trkpt lat="50.0535102" lon="19.9386122"><ele>217.0</ele><time>2026-09-14T09:00:32Z</time></trkpt>
      <trkpt lat="50.0534796" lon="19.9387755"><ele>217.6</ele><time>2026-09-14T09:00:34Z</time></trkpt>
      <trkpt lat="50.0534490" lon="19.9389388"><ele>218.1</ele><time>2026-09-14T09:00:36Z</time></trkpt>
      <trkpt lat="50.0534184" lon="19.9391020"><ele>218.7</ele><time>2026-09-14T09:00:38Z</time></trkpt>
      <trkpt lat="50.0533878" lon="19.9392653"><ele>219.2</ele><time>2026-09-14T09:00:40Z</time></trkpt>
      <trkpt lat="50.0533571" lon="19.9394286"><ele>219.7</ele><time>2026-09-14T09:00:42Z</time></trkpt>
      <trkpt lat="50.0533265" lon="19.9395918"><ele>220.1</ele><time>2026-09-14T09:00:44Z</time></trkpt>
      <trkpt lat="50.0532959" lon="19.9397551"><ele>220.6</ele><time>2026-09-14T09:00:46Z</time></trkpt>
      <trkpt lat="50.0532653" lon="19.9399184"><ele>221.0</ele><time>2026-09-14T09:00:48Z</time></trkpt>
      <trkpt lat="50.0532347" lon="19.9400816"><ele>221.3</ele><time>2026-09-14T09:00:50Z</time></trkpt>
      <trkpt lat="50.0532041" lon="19.9402449"><ele>221.7</ele><time>2026-09-14T09:00:52Z</time></trkpt>
      <trkpt lat="50.0531735" lon="19.9404082"><ele>221.9</ele><time>2026-09-14T09:00:54Z</time></trkpt>
      <trkpt lat="50.0531429" lon="19.9405714"><ele>222.2</ele><time>2026-09-14T09:00:56Z</time></trkpt>
      <trkpt lat="50.0531122" lon="19.9407347"><ele>222.4</ele><time>2026-09-14T09:00:58Z</time></trkpt>
      <trkpt lat="50.0530816" lon="19.9408980"><ele>222.6</ele><time>2026-09-14T09:01:00Z</time></trkpt>
      <trkpt lat="50.0530510" lon="19.9410612"><ele>222.8</ele><time>2026-09-14T09:01:02Z</time></trkpt>
      <trkpt lat="50.0530204" lon="19.9412245"><ele>222.9</ele><time>2026-09-14T09:01:04Z</time></trkpt>
      <trkpt lat="50.0529898" lon="19.9413878"><ele>223.0</ele><time>2026-09-14T09:01:06Z</time></trkpt>
      <trkpt lat="50.0529592" lon="19.9415510"><ele>223.0</ele><time>2026-09-14T09:01:08Z</time></trkpt>
      <trkpt lat="50.0529286" lon="19.9417143"><ele>223.0</ele><time>2026-09-14T09:01:10Z</time></trkpt>
      <trkpt lat="50.0528980" lon="19.9418776"><ele>223.0</ele><time>2026-09-14T09:01:12Z</time></trkpt>
      <trkpt lat="50.0528673" lon="19.9420408"><ele>222.9</ele><time>2026-09-14T09:01:14Z</time></trkpt>
      <trkpt lat="50.0528367" lon="19.9422041"><ele>222.8</ele><time>2026-09-14T09:01:16Z</time></trkpt>
      <trkpt lat="50.0528061" lon="19.9423673"><ele>222.6</ele><time>2026-09-14T09:01:18Z</time></trkpt>
      <trkpt lat="50.0527755" lon="19.9425306"><ele>222.5</ele><time>2026-09-14T09:01:20Z</time></trkpt>
      <trkpt lat="50.0527449" lon="19.9426939"><ele>222.2</ele><time>2026-09-14T09:01:22Z</time></trkpt>
      <trkpt lat="50.0527143" lon="19.9428571"><ele>222.0</ele><time>2026-09-14T09:01:24Z</time></trkpt>
      <trkpt lat="50.0526837" lon="19.9430204"><ele>221.7</ele><time>2026-09-14T09:01:26Z</time></trkpt>
      <trkpt lat="50.0526531" lon="19.9431837"><ele>221.4</ele><time>2026-09-14T09:01:28Z</time></trkpt>
      <trkpt lat="50.0526224" lon="19.9433469"><ele>221.0</ele><time>2026-09-14T09:01:30Z</time></trkpt>
      <trkpt lat="50.0525918" lon="19.9435102"><ele>220.6</ele><time>2026-09-14T09:01:32Z</time></trkpt>
      <trkpt lat="50.0525612" lon="19.9436735"><ele>220.2</ele><time>2026-09-14T09:01:34Z</time></trkpt>
      <trkpt lat="50.0525306" lon="19.9438367"><ele>219.7</ele><time>2026-09-14T09:01:36Z</time></trkpt>
      <trkpt lat="50.0525000" lon="19.9440000"><ele>219.3</ele><time>2026-09-14T09:01:38Z</time></trkpt>
      <trkpt lat="50.0524754" lon="19.9441639"><ele>218.7</ele><time>2026-09-14T09:01:40Z</time></trkpt>
      <trkpt lat="50.0524508" lon="19.9443279"><ele>218.2</ele><time>2026-09-14T09:01:42Z</time></trkpt>
      <trkpt lat="50.0524262" lon="19.9444918"><ele>217.6</ele><time>2026-09-14T09:01:44Z</time></trkpt>
      <trkpt lat="50.0524016" lon="19.9446557"><ele>217.0</ele><time>2026-09-14T09:01:46Z</time></trkpt>
      <trkpt lat="50.0523770" lon="19.9448197"><ele>216.4</ele><time>2026-09-14T09:01:48Z</time></trkpt>
      <trkpt lat="50.0523525" lon="19.9449836"><ele>215.8</ele><time>2026-09-14T09:01:50Z</time></trkpt>
      <trkpt lat="50.0523279" lon="19.9451475"><ele>215.1</ele><time>2026-09-14T09:01:52Z</time></trkpt>
      <trkpt lat="50.0523033" lon="19.9453115"><ele>214.4</ele><time>2026-09-14T09:01:54Z</time></trkpt>
      <trkpt lat="50.0522787" lon="19.9454754"><ele>213.7</ele><time>2026-09-14T09:01:56Z</time></trkpt>
      <trkpt lat="50.0522541" lon="19.9456393"><ele>213.0</ele><time>2026-09-14T09:01:58Z</time></trkpt>
      <trkpt lat="50.0522295" lon="19.9458033"><ele>212.2</ele><time>2026-09-14T09:02:00Z</time></trkpt>
      <trkpt lat="50.0522049" lon="19.9459672"><ele>211.5</ele><time>2026-09-14T09:02:02Z</time></trkpt>
      <trkpt lat="50.0521803" lon="19.9461311"><ele>210.7</ele><time>2026-09-14T09:02:04Z</time></trkpt>
      <trkpt lat="50.0521557" lon="19.9462951"><ele>209.9</ele><time>2026-09-14T09:02:06Z</time></trkpt>
      <trkpt lat="50.0521311" lon="19.9464590"><ele>209.1</ele><time>2026-09-14T09:02:08Z</time></trkpt>
      <trkpt lat="50.0521066" lon="19.9466230"><ele>208.3</ele><time>2026-09-14T09:02:10Z</time></trkpt>
      <trkpt lat="50.0520820" lon="19.9467869"><ele>207.5</ele><time>2026-09-14T09:02:12Z</time></trkpt>
      <trkpt lat="50.0520574" lon="19.9469508"><ele>206.7</ele><time>2026-09-14T09:02:14Z</time></trkpt>
      <trkpt lat="50.0520328" lon="19.9471148"><ele>205.9</ele><time>2026-09-14T09:02:16Z</time></trkpt>
      <trkpt lat="50.0520082" lon="19.9472787"><ele>205.1</ele><time>2026-09-14T09:02:18Z</time></trkpt>
      <trkpt lat="50.0519836" lon="19.9474426"><ele>204.3</ele><time>2026-09-14T09:02:20Z</time></trkpt>
      <trkpt lat="50.0519590" lon="19.9476066"><ele>203.5</ele><time>2026-09-14T09:02:22Z</time></trkpt>
      <trkpt lat="50.0519344" lon="19.9477705"><ele>202.6</ele><time>2026-09-14T09:02:24Z</time></trkpt>
      <trkpt lat="50.0519098" lon="19.9479344"><ele>201.8</ele><time>2026-09-14T09:02:26Z</time></trkpt>
      <trkpt lat="50.0518852" lon="19.9480984"><ele>201.0</ele><time>2026-09-14T09:02:28Z</time></trkpt>
      <trkpt lat="50.0518607" lon="19.9482623"><ele>200.2</ele><time>2026-09-14T09:02:30Z</time></trkpt>
      <trkpt lat="50.0518361" lon="19.9484262"><ele>199.5</ele><time>2026-09-14T09:02:32Z</time></trkpt>
      <trkpt lat="50.0518115" lon="19.9485902"><ele>198.7</ele><time>2026-09-14T09:02:34Z</time></trkpt>
      <trkpt lat="50.0517869" lon="19.9487541"><ele>197.9</ele><time>2026-09-14T09:02:36Z</time></trkpt>
      <trkpt lat="50.0517623" lon="19.9489180"><ele>197.2</ele><time>2026-09-14T09:02:38Z</time></trkpt>
      <trkpt lat="50.0517377" lon="19.9490820"><ele>196.5</ele><time>2026-09-14T09:02:40Z</time></trkpt>
      <trkpt lat="50.0517131" lon="19.9492459"><ele>195.7</ele><time>2026-09-14T09:02:42Z</time></trkpt>
      <trkpt lat="50.0516885" lon="19.9494098"><ele>195.1</ele><time>2026-09-14T09:02:44Z</time></trkpt>
      <trkpt lat="50.0516639" lon="19.9495738"><ele>194.4</ele><time>2026-09-14T09:02:46Z</time></trkpt>
      <trkpt lat="50.0516393" lon="19.9497377"><ele>193.7</ele><time>2026-09-14T09:02:48Z</time></trkpt>
      <trkpt lat="50.0516148" lon="19.9499016"><ele>193.1</ele><time>2026-09-14T09:02:50Z</time></trkpt>
      <trkpt lat="50.0515902" lon="19.9500656"><ele>192.5</ele><time>2026-09-14T09:02:52Z</time></trkpt>
      <trkpt lat="50.0515656" lon="19.9502295"><ele>191.9</ele><time>2026-09-14T09:02:54Z</time></trkpt>
      <trkpt lat="50.0515410" lon="19.9503934"><ele>191.4</ele><time>2026-09-14T09:02:56Z</time></trkpt>
      <trkpt lat="50.0515164" lon="19.9505574"><ele>190.9</ele><time>2026-09-14T09:02:58Z</time></trkpt>
      <trkpt lat="50.0514918" lon="19.9507213"><ele>190.4</ele><time>2026-09-14T09:03:00Z</time></trkpt>
      <trkpt lat="50.0514672" lon="19.9508852"><ele>189.9</ele><time>2026-09-14T09:03:02Z</time></trkpt>
      <trkpt lat="50.0514426" lon="19.9510492"><ele>189.5</ele><time>2026-09-14T09:03:04Z</time></trkpt>
      <trkpt lat="50.0514180" lon="19.9512131"><ele>189.1</ele><time>2026-09-14T09:03:06Z</time></trkpt>
      <trkpt lat="50.0513934" lon="19.9513770"><ele>188.7</ele><time>2026-09-14T09:03:08Z</time></trkpt>
      <trkpt lat="50.0513689" lon="19.9515410"><ele>188.4</ele><time>2026-09-14T09:03:10Z</time></trkpt>
      <trkpt lat="50.0513443" lon="19.9517049"><ele>188.1</ele><time>2026-09-14T09:03:12Z</time></trkpt>
      <trkpt lat="50.0513197" lon="19.9518689"><ele>187.8</ele><time>2026-09-14T09:03:14Z</time></trkpt>
      <trkpt lat="50.0512951" lon="19.9520328"><ele>187.6</ele><time>2026-09-14T09:03:16Z</time></trkpt>
      <trkpt lat="50.0512705" lon="19.9521967"><ele>187.4</ele><time>2026-09-14T09:03:18Z</time></trkpt>
      <trkpt lat="50.0512459" lon="19.9523607"><ele>187.3</ele><time>2026-09-14T09:03:20Z</time></trkpt>
      <trkpt lat="50.0512213" lon="19.9525246"><ele>187.1</ele><time>2026-09-14T09:03:22Z</time></trkpt>
      <trkpt lat="50.0511967" lon="19.9526885"><ele>187.1</ele><time>2026-09-14T09:03:24Z</time></trkpt>
      <trkpt lat="50.0511721" lon="19.9528525"><ele>187.0</ele><time>2026-09-14T09:03:26Z</time></trkpt>
      <trkpt lat="50.0511475" lon="19.9530164"><ele>187.0</ele><time>2026-09-14T09:03:28Z</time></trkpt>
      <trkpt lat="50.0511230" lon="19.9531803"><ele>187.0</ele><time>2026-09-14T09:03:30Z</time></trkpt>
      <trkpt lat="50.0510984" lon="19.9533443"><ele>187.1</ele><time>2026-09-14T09:03:32Z</time></trkpt>
      <trkpt lat="50.0510738" lon="19.9535082"><ele>187.2</ele><time>2026-09-14T09:03:34Z</time></trkpt>
      <trkpt lat="50.0510492" lon="19.9536721"><ele>187.3</ele><time>2026-09-14T09:03:36Z</time></trkpt>
      <trkpt lat="50.0510246" lon="19.9538361"><ele>187.5</ele><time>2026-09-14T09:03:38Z</time></trkpt>
      <trkpt lat="50.0510000" lon="19.9540000"><ele>187.7</ele><time>2026-09-14T09:03:40Z</time></trkpt>
      <trkpt lat="50.0510323" lon="19.9541613"><ele>188.0</ele><time>2026-09-14T09:03:42Z</time></trkpt>
      <trkpt lat="50.0510645" lon="19.9543226"><ele>188.3</ele><time>2026-09-14T09:03:44Z</time></trkpt>
      <trkpt lat="50.0510968" lon="19.9544839"><ele>188.6</ele><time>2026-09-14T09:03:46Z</time></trkpt>
      <trkpt lat="50.0511290" lon="19.9546452"><ele>188.9</ele><time>2026-09-14T09:03:48Z</time></trkpt>
      <trkpt lat="50.0511613" lon="19.9548065"><ele>189.3</ele><time>2026-09-14T09:03:50Z</time></trkpt>
      <trkpt lat="50.0511935" lon="19.9549677"><ele>189.8</ele><time>2026-09-14T09:03:52Z</time></trkpt>
      <trkpt lat="50.0512258" lon="19.9551290"><ele>190.2</ele><time>2026-09-14T09:03:54Z</time></trkpt>
      <trkpt lat="50.0512581" lon="19.9552903"><ele>190.7</ele><time>2026-09-14T09:03:56Z</time></trkpt>
      <trkpt lat="50.0512903" lon="19.9554516"><ele>191.2</ele><time>2026-09-14T09:03:58Z</time></trkpt>
      <trkpt lat="50.0513226" lon="19.9556129"><ele>191.7</ele><time>2026-09-14T09:04:00Z</time></trkpt>
      <trkpt lat="50.0513548" lon="19.9557742"><ele>192.3</ele><time>2026-09-14T09:04:02Z</time></trkpt>
      <trkpt lat="50.0513871" lon="19.9559355"><ele>192.9</ele><time>2026-09-14T09:04:04Z</time></trkpt>
      <trkpt lat="50.0514194" lon="19.9560968"><ele>193.5</ele><time>2026-09-14T09:04:06Z</time></trkpt>
      <trkpt lat="50.0514516" lon="19.9562581"><ele>194.2</ele><time>2026-09-14T09:04:08Z</time></trkpt>
      <trkpt lat="50.0514839" lon="19.9564194"><ele>194.8</ele><time>2026-09-14T09:04:10Z</time></trkpt>
      <trkpt lat="50.0515161" lon="19.9565806"><ele>195.5</ele><time>2026-09-14T09:04:12Z</time></trkpt>
      <trkpt lat="50.0515484" lon="19.9567419"><ele>196.2</ele><time>2026-09-14T09:04:14Z</time></trkpt>
      <trkpt lat="50.0515806" lon="19.9569032"><ele>196.9</ele><time>2026-09-14T09:04:16Z</time></trkpt>
      <trkpt lat="50.0516129" lon="19.9570645"><ele>197.7</ele><time>2026-09-14T09:04:18Z</time></trkpt>
      <trkpt lat="50.0516452" lon="19.9572258"><ele>198.4</ele><time>2026-09-14T09:04:20Z</time></trkpt>
      <trkpt lat="50.0516774" lon="19.9573871"><ele>199.2</ele><time>2026-09-14T09:04:22Z</time></trkpt>
      <trkpt lat="50.0517097" lon="19.9575484"><ele>200.0</ele><time>2026-09-14T09:04:24Z</time></trkpt>
      <trkpt lat="50.0517419" lon="19.9577097"><ele>200.8</ele><time>2026-09-14T09:04:26Z</time></trkpt>
      <trkpt lat="50.0517742" lon="19.9578710"><ele>201.6</ele><time>2026-09-14T09:04:28Z</time></trkpt>
      <trkpt lat="50.0518065" lon="19.9580323"><ele>202.4</ele><time>2026-09-14T09:04:30Z</time></trkpt>
      <trkpt lat="50.0518387" lon="19.9581935"><ele>203.2</ele><time>2026-09-14T09:04:32Z</time></trkpt>
      <trkpt lat="50.0518710" lon="19.9583548"><ele>204.0</ele><time>2026-09-14T09:04:34Z</time></trkpt>
      <trkpt lat="50.0519032" lon="19.9585161"><ele>204.8</ele><time>2026-09-14T09:04:36Z</time></trkpt>
      <trkpt lat="50.0519355" lon="19.9586774"><ele>205.6</ele><time>2026-09-14T09:04:38Z</time></trkpt>
      <trkpt lat="50.0519677" lon="19.9588387"><ele>206.4</ele><time>2026-09-14T09:04:40Z</time></trkpt>
      <trkpt lat="50.0520000" lon="19.9590000"><ele>207.3</ele><time>2026-09-14T09:04:42Z</time></trkpt>
      <trkpt lat="50.0520323" lon="19.9591613"><ele>208.1</ele><time>2026-09-14T09:04:44Z</time></trkpt>
      <trkpt lat="50.0520645" lon="19.9593226"><ele>208.9</ele><time>2026-09-14T09:04:46Z</time></trkpt>
      <trkpt lat="50.0520968" lon="19.9594839"><ele>209.7</ele><time>2026-09-14T09:04:48Z</time></trkpt>
      <trkpt lat="50.0521290" lon="19.9596452"><ele>210.5</ele><time>2026-09-14T09:04:50Z</time></trkpt>
      <trkpt lat="50.0521613" lon="19.9598065"><ele>211.2</ele><time>2026-09-14T09:04:52Z</time></trkpt>
      <trkpt lat="50.0521935" lon="19.9599677"><ele>212.0</ele><time>2026-09-14T09:04:54Z</time></trkpt>
      <trkpt lat="50.0522258" lon="19.9601290"><ele>212.7</ele><time>2026-09-14T09:04:56Z</time></trkpt>
      <trkpt lat="50.0522581" lon="19.9602903"><ele>213.5</ele><time>2026-09-14T09:04:58Z</time></trkpt>
      <trkpt lat="50.0522903" lon="19.9604516"><ele>214.2</ele><time>2026-09-14T09:05:00Z</time></trkpt>
      <trkpt lat="50.0523226" lon="19.9606129"><ele>214.9</ele><time>2026-09-14T09:05:02Z</time></trkpt>
      <trkpt lat="50.0523548" lon="19.9607742"><ele>215.5</ele><time>2026-09-14T09:05:04Z</time></trkpt>
      <trkpt lat="50.0523871" lon="19.9609355"><ele>216.2</ele><time>2026-09-14T09:05:06Z</time></trkpt>
      <trkpt lat="50.0524194" lon="19.9610968"><ele>216.8</ele><time>2026-09-14T09:05:08Z</time></trkpt>
      <trkpt lat="50.0524516" lon="19.9612581"><ele>217.4</ele><time>2026-09-14T09:05:10Z</time></trkpt>
      <trkpt lat="50.0524839" lon="19.9614194"><ele>218.0</ele><time>2026-09-14T09:05:12Z</time></trkpt>
      <trkpt lat="50.0525161" lon="19.9615806"><ele>218.6</ele><time>2026-09-14T09:05:14Z</time></trkpt>
      <trkpt lat="50.0525484" lon="19.9617419"><ele>219.1</ele><time>2026-09-14T09:05:16Z</time></trkpt>
      <trkpt lat="50.0525806" lon="19.9619032"><ele>219.6</ele><time>2026-09-14T09:05:18Z</time></trkpt>
      <trkpt lat="50.0526129" lon="19.9620645"><ele>220.0</ele><time>2026-09-14T09:05:20Z</time></trkpt>
      <trkpt lat="50.0526452" lon="19.9622258"><ele>220.5</ele><time>2026-09-14T09:05:22Z</time></trkpt>
      <trkpt lat="50.0526774" lon="19.9623871"><ele>220.9</ele><time>2026-09-14T09:05:24Z</time></trkpt>
      <trkpt lat="50.0527097" lon="19.9625484"><ele>221.2</ele><time>2026-09-14T09:05:26Z</time></trkpt>
      <trkpt lat="50.0527419" lon="19.9627097"><ele>221.6</ele><time>2026-09-14T09:05:28Z</time></trkpt>
      <trkpt lat="50.0527742" lon="19.9628710"><ele>221.9</ele><time>2026-09-14T09:05:30Z</time></trkpt>
      <trkpt lat="50.0528065" lon="19.9630323"><ele>222.2</ele><time>2026-09-14T09:05:32Z</time></trkpt>
      <trkpt lat="50.0528387" lon="19.9631935"><ele>222.4</ele><time>2026-09-14T09:05:34Z</time></trkpt>
      <trkpt lat="50.0528710" lon="19.9633548"><ele>222.6</ele><time>2026-09-14T09:05:36Z</time></trkpt>
      <trkpt lat="50.0529032" lon="19.9635161"><ele>222.7</ele><time>2026-09-14T09:05:38Z</time></trkpt>
      <trkpt lat="50.0529355" lon="19.9636774"><ele>222.9</ele><time>2026-09-14T09:05:40Z</time></trkpt>
      <trkpt lat="50.0529677" lon="19.9638387"><ele>222.9</ele><time>2026-09-14T09:05:42Z</time></trkpt>
      <trkpt lat="50.0530000" lon="19.9640000"><ele>223.0</ele><time>2026-09-14T09:05:44Z</time></trkpt>
      <trkpt lat="50.0530833" lon="19.9641111"><ele>223.0</ele><time>2026-09-14T09:05:46Z</time></trkpt>
      <trkpt lat="50.0531667" lon="19.9642222"><ele>223.0</ele><time>2026-09-14T09:05:48Z</time></trkpt>
      <trkpt lat="50.0532500" lon="19.9643333"><ele>222.9</ele><time>2026-09-14T09:05:50Z</time></trkpt>
      <trkpt lat="50.0533333" lon="19.9644444"><ele>222.8</ele><time>2026-09-14T09:05:52Z</time></trkpt>
      <trkpt lat="50.0534167" lon="19.9645556"><ele>222.7</ele><time>2026-09-14T09:05:54Z</time></trkpt>
      <trkpt lat="50.0535000" lon="19.9646667"><ele>222.5</ele><time>2026-09-14T09:05:56Z</time></trkpt>
      <trkpt lat="50.0535833" lon="19.9647778"><ele>222.3</ele><time>2026-09-14T09:05:58Z</time></trkpt>
      <trkpt lat="50.0536667" lon="19.9648889"><ele>222.0</ele><time>2026-09-14T09:06:00Z</time></trkpt>
      <trkpt lat="50.0537500" lon="19.9650000"><ele>221.8</ele><time>2026-09-14T09:06:02Z</time></trkpt>
      <trkpt lat="50.0538333" lon="19.9651111"><ele>221.4</ele><time>2026-09-14T09:06:04Z</time></trkpt>
      <trkpt lat="50.0539167" lon="19.9652222"><ele>221.1</ele><time>2026-09-14T09:06:06Z</time></trkpt>
      <trkpt lat="50.0540000" lon="19.9653333"><ele>220.7</ele><time>2026-09-14T09:06:08Z</time></trkpt>
      <trkpt lat="50.0540833" lon="19.9654444"><ele>220.3</ele><time>2026-09-14T09:06:10Z</time></trkpt>
      <trkpt lat="50.0541667" lon="19.9655556"><ele>219.9</ele><time>2026-09-14T09:06:12Z</time></trkpt>
      <trkpt lat="50.0542500" lon="19.9656667"><ele>219.4</ele><time>2026-09-14T09:06:14Z</time></trkpt>
      <trkpt lat="50.0543333" lon="19.9657778"><ele>218.9</ele><time>2026-09-14T09:06:16Z</time></trkpt>
      <trkpt lat="50.0544167" lon="19.9658889"><ele>218.3</ele><time>2026-09-14T09:06:18Z</time></trkpt>
      <trkpt lat="50.0545000" lon="19.9660000"><ele>217.8</ele><time>2026-09-14T09:06:20Z</time></trkpt>
      <trkpt lat="50.0545833" lon="19.9661111"><ele>217.2</ele><time>2026-09-14T09:06:22Z</time></trkpt>
      <trkpt lat="50.0546667" lon="19.9662222"><ele>216.6</ele><time>2026-09-14T09:06:24Z</time></trkpt>
      <trkpt lat="50.0547500" lon="19.9663333"><ele>215.9</ele><time>2026-09-14T09:06:26Z</time></trkpt>
      <trkpt lat="50.0548333" lon="19.9664444"><ele>215.3</ele><time>2026-09-14T09:06:28Z</time></trkpt>
      <trkpt lat="50.0549167" lon="19.9665556"><ele>214.6</ele><time>2026-09-14T09:06:30Z</time></trkpt>
      <trkpt lat="50.0550000" lon="19.9666667"><ele>213.9</ele><time>2026-09-14T09:06:32Z</time></trkpt>
      <trkpt lat="50.0550833" lon="19.9667778"><ele>213.2</ele><time>2026-09-14T09:06:34Z</time></trkpt>
      <trkpt lat="50.0551667" lon="19.9668889"><ele>212.4</ele><time>2026-09-14T09:06:36Z</time></trkpt>
      <trkpt lat="50.0552500" lon="19.9670000"><ele>211.7</ele><time>2026-09-14T09:06:38Z</time></trkpt>
      <trkpt lat="50.0553333" lon="19.9671111"><ele>210.9</ele><time>2026-09-14T09:06:40Z</time></trkpt>
      <trkpt lat="50.0554167" lon="19.9672222"><ele>210.1</ele><time>2026-09-14T09:06:42Z</time></trkpt>
      <trkpt lat="50.0555000" lon="19.9673333"><ele>209.3</ele><time>2026-09-14T09:06:44Z</time></trkpt>
      <trkpt lat="50.0555833" lon="19.9674444"><ele>208.5</ele><time>2026-09-14T09:06:46Z</time></trkpt>
      <trkpt lat="50.0556667" lon="19.9675556"><ele>207.7</ele><time>2026-09-14T09:06:48Z</time></trkpt>
      <trkpt lat="50.0557500" lon="19.9676667"><ele>206.9</ele><time>2026-09-14T09:06:50Z</time></trkpt>
      <trkpt lat="50.0558333" lon="19.9677778"><ele>206.1</ele><time>2026-09-14T09:06:52Z</time></trkpt>
      <trkpt lat="50.0559167" lon="19.9678889"><ele>205.3</ele><time>2026-09-14T09:06:54Z</time></trkpt>
      <trkpt lat="50.0560000" lon="19.9680000"><ele>204.5</ele><time>2026-09-14T09:06:56Z</time></trkpt>
      <trkpt lat="50.0560833" lon="19.9681111"><ele>203.6</ele><time>2026-09-14T09:06:58Z</time></trkpt>
      <trkpt lat="50.0561667" lon="19.9682222"><ele>202.8</ele><time>2026-09-14T09:07:00Z</time></trkpt>
      <trkpt lat="50.0562500" lon="19.9683333"><ele>202.0</ele><time>2026-09-14T09:07:02Z</time></trkpt>
      <trkpt lat="50.0563333" lon="19.9684444"><ele>201.2</ele><time>2026-09-14T09:07:04Z</time></trkpt>
      <trkpt lat="50.0564167" lon="19.9685556"><ele>200.4</ele><time>2026-09-14T09:07:06Z</time></trkpt>
      <trkpt lat="50.0565000" lon="19.9686667"><ele>199.6</ele><time>2026-09-14T09:07:08Z</time></trkpt>
      <trkpt lat="50.0565833" lon="19.9687778"><ele>198.9</ele><time>2026-09-14T09:07:10Z</time></trkpt>
      <trkpt lat="50.0566667" lon="19.9688889"><ele>198.1</ele><time>2026-09-14T09:07:12Z</time></trkpt>
      <trkpt lat="50.0567500" lon="19.9690000"><ele>197.4</ele><time>2026-09-14T09:07:14Z</time></trkpt>
      <trkpt lat="50.0568333" lon="19.9691111"><ele>196.6</ele><time>2026-09-14T09:07:16Z</time></trkpt>
      <trkpt lat="50.0569167" lon="19.9692222"><ele>195.9</ele><time>2026-09-14T09:07:18Z</time></trkpt>
      <trkpt lat="50.0570000" lon="19.9693333"><ele>195.2</ele><time>2026-09-14T09:07:20Z</time></trkpt>
      <trkpt lat="50.0570833" lon="19.9694444"><ele>194.5</ele><time>2026-09-14T09:07:22Z</time></trkpt>
      <trkpt lat="50.0571667" lon="19.9695556"><ele>193.9</ele><time>2026-09-14T09:07:24Z</time></trkpt>
      <trkpt lat="50.0572500" lon="19.9696667"><ele>193.2</ele><time>2026-09-14T09:07:26Z</time></trkpt>
      <trkpt lat="50.0573333" lon="19.9697778"><ele>192.6</ele><time>2026-09-14T09:07:28Z</time></trkpt>
      <trkpt lat="50.0574167" lon="19.9698889"><ele>192.1</ele><time>2026-09-14T09:07:30Z</time></trkpt>
      <trkpt lat="50.0575000" lon="19.9700000"><ele>191.5</ele><time>2026-09-14T09:07:32Z</time></trkpt>
      <trkpt lat="50.0575937" lon="19.9699167"><ele>191.0</ele><time>2026-09-14T09:07:34Z</time></trkpt>
      <trkpt lat="50.0576875" lon="19.9698333"><ele>190.5</ele><time>2026-09-14T09:07:36Z</time></trkpt>
      <trkpt lat="50.0577812" lon="19.9697500"><ele>190.0</ele><time>2026-09-14T09:07:38Z</time></trkpt>
      <trkpt lat="50.0578750" lon="19.9696667"><ele>189.6</ele><time>2026-09-14T09:07:40Z</time></trkpt>
      <trkpt lat="50.0579688" lon="19.9695833"><ele>189.2</ele><time>2026-09-14T09:07:42Z</time></trkpt>
      <trkpt lat="50.0580625" lon="19.9695000"><ele>188.8</ele><time>2026-09-14T09:07:44Z</time></trkpt>
      <trkpt lat="50.0581562" lon="19.9694167"><ele>188.5</ele><time>2026-09-14T09:07:46Z</time></trkpt>
      <trkpt lat="50.0582500" lon="19.9693333"><ele>188.1</ele><time>2026-09-14T09:07:48Z</time></trkpt>
      <trkpt lat="50.0583437" lon="19.9692500"><ele>187.9</ele><time>2026-09-14T09:07:50Z</time></trkpt>
      <trkpt lat="50.0584375" lon="19.9691667"><ele>187.6</ele><time>2026-09-14T09:07:52Z</time></trkpt>
      <trkpt lat="50.0585312" lon="19.9690833"><ele>187.4</ele><time>2026-09-14T09:07:54Z</time></trkpt>
      <trkpt lat="50.0586250" lon="19.9690000"><ele>187.3</ele><time>2026-09-14T09:07:56Z</time></trkpt>
      <trkpt lat="50.0587187" lon="19.9689167"><ele>187.2</ele><time>2026-09-14T09:07:58Z</time></trkpt>
      <trkpt lat="50.0588125" lon="19.9688333"><ele>187.1</ele><time>2026-09-14T09:08:00Z</time></trkpt>
      <trkpt lat="50.0589062" lon="19.9687500"><ele>187.0</ele><time>2026-09-14T09:08:02Z</time></trkpt>
      <trkpt lat="50.0590000" lon="19.9686667"><ele>187.0</ele><time>2026-09-14T09:08:04Z</time></trkpt>
      <trkpt lat="50.0590937" lon="19.9685833"><ele>187.0</ele><time>2026-09-14T09:08:06Z</time></trkpt>
      <trkpt lat="50.0591875" lon="19.9685000"><ele>187.1</ele><time>2026-09-14T09:08:08Z</time></trkpt>
      <trkpt lat="50.0592812" lon="19.9684167"><ele>187.2</ele><time>2026-09-14T09:08:10Z</time></trkpt>
      <trkpt lat="50.0593750" lon="19.9683333"><ele>187.3</ele><time>2026-09-14T09:08:12Z</time></trkpt>
      <trkpt lat="50.0594688" lon="19.9682500"><ele>187.5</ele><time>2026-09-14T09:08:14Z</time></trkpt>
      <trkpt lat="50.0595625" lon="19.9681667"><ele>187.7</ele><time>2026-09-14T09:08:16Z</time></trkpt>
      <trkpt lat="50.0596562" lon="19.9680833"><ele>187.9</ele><time>2026-09-14T09:08:18Z</time></trkpt>
      <trkpt lat="50.0597500" lon="19.9680000"><ele>188.2</ele><time>2026-09-14T09:08:20Z</time></trkpt>
      <trkpt lat="50.0598437" lon="19.9679167"><ele>188.5</ele><time>2026-09-14T09:08:22Z</time></trkpt>
      <trkpt lat="50.0599375" lon="19.9678333"><ele>188.9</ele><time>2026-09-14T09:08:24Z</time></trkpt>
      <trkpt lat="50.0600312" lon="19.9677500"><ele>189.2</ele><time>2026-09-14T09:08:26Z</time></trkpt>
      <trkpt lat="50.0601250" lon="19.9676667"><ele>189.7</ele><time>2026-09-14T09:08:28Z</time></trkpt>
      <trkpt lat="50.0602187" lon="19.9675833"><ele>190.1</ele><time>2026-09-14T09:08:30Z</time></trkpt>
      <trkpt lat="50.0603125" lon="19.9675000"><ele>190.6</ele><time>2026-09-14T09:08:32Z</time></trkpt>
      <trkpt lat="50.0604062" lon="19.9674167"><ele>191.1</ele><time>2026-09-14T09:08:34Z</time></trkpt>
      <trkpt lat="50.0605000" lon="19.9673333"><ele>191.6</ele><time>2026-09-14T09:08:36Z</time></trkpt>
      <trkpt lat="50.0605937" lon="19.9672500"><ele>192.2</ele><time>2026-09-14T09:08:38Z</time></trkpt>
      <trkpt lat="50.0606875" lon="19.9671667"><ele>192.8</ele><time>2026-09-14T09:08:40Z</time></trkpt>
      <trkpt lat="50.0607812" lon="19.9670833"><ele>193.4</ele><time>2026-09-14T09:08:42Z</time></trkpt>
      <trkpt lat="50.0608750" lon="19.9670000"><ele>194.0</ele><time>2026-09-14T09:08:44Z</time></trkpt>
      <trkpt lat="50.0609688" lon="19.9669167"><ele>194.7</ele><time>2026-09-14T09:08:46Z</time></trkpt>
      <trkpt lat="50.0610625" lon="19.9668333"><ele>195.3</ele><time>2026-09-14T09:08:48Z</time></trkpt>
      <trkpt lat="50.0611562" lon="19.9667500"><ele>196.0</ele><time>2026-09-14T09:08:50Z</time></trkpt>
      <trkpt lat="50.0612500" lon="19.9666667"><ele>196.8</ele><time>2026-09-14T09:08:52Z</time></trkpt>
      <trkpt lat="50.0613437" lon="19.9665833"><ele>197.5</ele><time>2026-09-14T09:08:54Z</time></trkpt>
      <trkpt lat="50.0614375" lon="19.9665000"><ele>198.2</ele><time>2026-09-14T09:08:56Z</time></trkpt>
      <trkpt lat="50.0615312" lon="19.9664167"><ele>199.0</ele><time>2026-09-14T09:08:58Z</time></trkpt>
      <trkpt lat="50.0616250" lon="19.9663333"><ele>199.8</ele><time>2026-09-14T09:09:00Z</time></trkpt>
      <trkpt lat="50.0617187" lon="19.9662500"><ele>200.6</ele><time>2026-09-14T09:09:02Z</time></trkpt>
      <trkpt lat="50.0618125" lon="19.9661667"><ele>201.4</ele><time>2026-09-14T09:09:04Z</time></trkpt>
      <trkpt lat="50.0619062" lon="19.9660833"><ele>202.2</ele><time>2026-09-14T09:09:06Z</time></trkpt>
      <trkpt lat="50.0620000" lon="19.9660000"><ele>203.0</ele><time>2026-09-14T09:09:08Z</time></trkpt>
      <trkpt lat="50.0620323" lon="19.9658387"><ele>203.8</ele><time>2026-09-14T09:09:10Z</time></trkpt>
      <trkpt lat="50.0620645" lon="19.9656774"><ele>204.6</ele><time>2026-09-14T09:09:12Z</time></trkpt>
      <trkpt lat="50.0620968" lon="19.9655161"><ele>205.4</ele><time>2026-09-14T09:09:14Z</time></trkpt>
      <trkpt lat="50.0621290" lon="19.9653548"><ele>206.3</ele><time>2026-09-14T09:09:16Z</time></trkpt>
      <trkpt lat="50.0621613" lon="19.9651935"><ele>207.1</ele><time>2026-09-14T09:09:18Z</time></trkpt>
      <trkpt lat="50.0621935" lon="19.9650323"><ele>207.9</ele><time>2026-09-14T09:09:20Z</time></trkpt>
      <trkpt lat="50.0622258" lon="19.9648710"><ele>208.7</ele><time>2026-09-14T09:09:22Z</time></trkpt>
      <trkpt lat="50.0622581" lon="19.9647097"><ele>209.5</ele><time>2026-09-14T09:09:24Z</time></trkpt>
      <trkpt lat="50.0622903" lon="19.9645484"><ele>210.3</ele><time>2026-09-14T09:09:26Z</time></trkpt>
      <trkpt lat="50.0623226" lon="19.9643871"><ele>211.0</ele><time>2026-09-14T09:09:28Z</time></trkpt>
      <trkpt lat="50.0623548" lon="19.9642258"><ele>211.8</ele><time>2026-09-14T09:09:30Z</time></trkpt>
      <trkpt lat="50.0623871" lon="19.9640645"><ele>212.6</ele><time>2026-09-14T09:09:32Z</time></trkpt>
      <trkpt lat="50.0624194" lon="19.9639032"><ele>213.3</ele><time>2026-09-14T09:09:34Z</time></trkpt>
      <trkpt lat="50.0624516" lon="19.9637419"><ele>214.0</ele><time>2026-09-14T09:09:36Z</time></trkpt>
      <trkpt lat="50.0624839" lon="19.9635806"><ele>214.7</ele><time>2026-09-14T09:09:38Z</time></trkpt>
      <trkpt lat="50.0625161" lon="19.9634194"><ele>215.4</ele><time>2026-09-14T09:09:40Z</time></trkpt>
      <trkpt lat="50.0625484" lon="19.9632581"><ele>216.0</ele><time>2026-09-14T09:09:42Z</time></trkpt>
      <trkpt lat="50.0625806" lon="19.9630968"><ele>216.7</ele><time>2026-09-14T09:09:44Z</time></trkpt>
      <trkpt lat="50.0626129" lon="19.9629355"><ele>217.3</ele><time>2026-09-14T09:09:46Z</time></trkpt>
      <trkpt lat="50.0626452" lon="19.9627742"><ele>217.9</ele><time>2026-09-14T09:09:48Z</time></trkpt>
      <trkpt lat="50.0626774" lon="19.9626129"><ele>218.4</ele><time>2026-09-14T09:09:50Z</time></trkpt>
      <trkpt lat="50.0627097" lon="19.9624516"><ele>219.0</ele><time>2026-09-14T09:09:52Z</time></trkpt>
      <trkpt lat="50.0627419" lon="19.9622903"><ele>219.5</ele><time>2026-09-14T09:09:54Z</time></trkpt>
      <trkpt lat="50.0627742" lon="19.9621290"><ele>219.9</ele><time>2026-09-14T09:09:56Z</time></trkpt>
      <trkpt lat="50.0628065" lon="19.9619677"><ele>220.4</ele><time>2026-09-14T09:09:58Z</time></trkpt>
      <trkpt lat="50.0628387" lon="19.9618065"><ele>220.8</ele><time>2026-09-14T09:10:00Z</time></trkpt>
      <trkpt lat="50.0628710" lon="19.9616452"><ele>221.2</ele><time>2026-09-14T09:10:02Z</time></trkpt>
      <trkpt lat="50.0629032" lon="19.9614839"><ele>221.5</ele><time>2026-09-14T09:10:04Z</time></trkpt>
      <trkpt lat="50.0629355" lon="19.9613226"><ele>221.8</ele><time>2026-09-14T09:10:06Z</time></trkpt>
      <trkpt lat="50.0629677" lon="19.9611613"><ele>222.1</ele><time>2026-09-14T09:10:08Z</time></trkpt>
      <trkpt lat="50.0630000" lon="19.9610000"><ele>222.3</ele><time>2026-09-14T09:10:10Z</time></trkpt>
      <trkpt lat="50.0630323" lon="19.9608387"><ele>222.5</ele><time>2026-09-14T09:10:12Z</time></trkpt>
      <trkpt lat="50.0630645" lon="19.9606774"><ele>222.7</ele><time>2026-09-14T09:10:14Z</time></trkpt>
      <trkpt lat="50.0630968" lon="19.9605161"><ele>222.8</ele><time>2026-09-14T09:10:16Z</time></trkpt>
      <trkpt lat="50.0631290" lon="19.9603548"><ele>222.9</ele><time>2026-09-14T09:10:18Z</time></trkpt>
      <trkpt lat="50.0631613" lon="19.9601935"><ele>223.0</ele><time>2026-09-14T09:10:20Z</time></trkpt>
      <trkpt lat="50.0631935" lon="19.9600323"><ele>223.0</ele><time>2026-09-14T09:10:22Z</time></trkpt>
      <trkpt lat="50.0632258" lon="19.9598710"><ele>223.0</ele><time>2026-09-14T09:10:24Z</time></trkpt>
      <trkpt lat="50.0632581" lon="19.9597097"><ele>222.9</ele><time>2026-09-14T09:10:26Z</time></trkpt>
      <trkpt lat="50.0632903" lon="19.9595484"><ele>222.8</ele><time>2026-09-14T09:10:28Z</time></trkpt>
      <trkpt lat="50.0633226" lon="19.9593871"><ele>222.7</ele><time>2026-09-14T09:10:30Z</time></trkpt>
      <trkpt lat="50.0633548" lon="19.9592258"><ele>222.5</ele><time>2026-09-14T09:10:32Z</time></trkpt>
      <trkpt lat="50.0633871" lon="19.9590645"><ele>222.3</ele><time>2026-09-14T09:10:34Z</time></trkpt>
      <trkpt lat="50.0634194" lon="19.9589032"><ele>222.1</ele><time>2026-09-14T09:10:36Z</time></trkpt>
      <trkpt lat="50.0634516" lon="19.9587419"><ele>221.8</ele><time>2026-09-14T09:10:38Z</time></trkpt>
      <trkpt lat="50.0634839" lon="19.9585806"><ele>221.5</ele><time>2026-09-14T09:10:40Z</time></trkpt>
      <trkpt lat="50.0635161" lon="19.9584194"><ele>221.2</ele><time>2026-09-14T09:10:42Z</time></trkpt>
      <trkpt lat="50.0635484" lon="19.9582581"><ele>220.8</ele><time>2026-09-14T09:10:44Z</time></trkpt>
      <trkpt lat="50.0635806" lon="19.9580968"><ele>220.4</ele><time>2026-09-14T09:10:46Z</time></trkpt>
      <trkpt lat="50.0636129" lon="19.9579355"><ele>220.0</ele><time>2026-09-14T09:10:48Z</time></trkpt>
      <trkpt lat="50.0636452" lon="19.9577742"><ele>219.5</ele><time>2026-09-14T09:10:50Z</time></trkpt>
      <trkpt lat="50.0636774" lon="19.9576129"><ele>219.0</ele><time>2026-09-14T09:10:52Z</time></trkpt>
      <trkpt lat="50.0637097" lon="19.9574516"><ele>218.5</ele><time>2026-09-14T09:10:54Z</time></trkpt>
      <trkpt lat="50.0637419" lon="19.9572903"><ele>217.9</ele><time>2026-09-14T09:10:56Z</time></trkpt>
      <trkpt lat="50.0637742" lon="19.9571290"><ele>217.3</ele><time>2026-09-14T09:10:58Z</time></trkpt>
      <trkpt lat="50.0638065" lon="19.9569677"><ele>216.7</ele><time>2026-09-14T09:11:00Z</time></trkpt>
      <trkpt lat="50.0638387" lon="19.9568065"><ele>216.1</ele><time>2026-09-14T09:11:02Z</time></trkpt>
      <trkpt lat="50.0638710" lon="19.9566452"><ele>215.4</ele><time>2026-09-14T09:11:04Z</time></trkpt>
      <trkpt lat="50.0639032" lon="19.9564839"><ele>214.7</ele><time>2026-09-14T09:11:06Z</time></trkpt>
      <trkpt lat="50.0639355" lon="19.9563226"><ele>214.0</ele><time>2026-09-14T09:11:08Z</time></trkpt>
      <trkpt lat="50.0639677" lon="19.9561613"><ele>213.3</ele><time>2026-09-14T09:11:10Z</time></trkpt>
      <trkpt lat="50.0640000" lon="19.9560000"><ele>212.6</ele><time>2026-09-14T09:11:12Z</time></trkpt>
      <trkpt lat="50.0639706" lon="19.9558382"><ele>211.8</ele><time>2026-09-14T09:11:14Z</time></trkpt>
      <trkpt lat="50.0639412" lon="19.9556765"><ele>211.1</ele><time>2026-09-14T09:11:16Z</time></trkpt>
      <trkpt lat="50.0639118" lon="19.9555147"><ele>210.3</ele><time>2026-09-14T09:11:18Z</time></trkpt>
      <trkpt lat="50.0638824" lon="19.9553529"><ele>209.5</ele><time>2026-09-14T09:11:20Z</time></trkpt>
      <trkpt lat="50.0638529" lon="19.9551912"><ele>208.7</ele><time>2026-09-14T09:11:22Z</time></trkpt>
      <trkpt lat="50.0638235" lon="19.9550294"><ele>207.9</ele><time>2026-09-14T09:11:24Z</time></trkpt>
      <trkpt lat="50.0637941" lon="19.9548676"><ele>207.1</ele><time>2026-09-14T09:11:26Z</time></trkpt>
      <trkpt lat="50.0637647" lon="19.9547059"><ele>206.3</ele><time>2026-09-14T09:11:28Z</time></trkpt>
      <trkpt lat="50.0637353" lon="19.9545441"><ele>205.5</ele><time>2026-09-14T09:11:30Z</time></trkpt>
      <trkpt lat="50.0637059" lon="19.9543824"><ele>204.7</ele><time>2026-09-14T09:11:32Z</time></trkpt>
      <trkpt lat="50.0636765" lon="19.9542206"><ele>203.8</ele><time>2026-09-14T09:11:34Z</time></trkpt>
      <trkpt lat="50.0636471" lon="19.9540588"><ele>203.0</ele><time>2026-09-14T09:11:36Z</time></trkpt>
      <trkpt lat="50.0636176" lon="19.9538971"><ele>202.2</ele><time>2026-09-14T09:11:38Z</time></trkpt>
      <trkpt lat="50.0635882" lon="19.9537353"><ele>201.4</ele><time>2026-09-14T09:11:40Z</time></trkpt>
      <trkpt lat="50.0635588" lon="19.9535735"><ele>200.6</ele><time>2026-09-14T09:11:42Z</time></trkpt>
      <trkpt lat="50.0635294" lon="19.9534118"><ele>199.8</ele><time>2026-09-14T09:11:44Z</time></trkpt>
      <trkpt lat="50.0635000" lon="19.9532500"><ele>199.0</ele><time>2026-09-14T09:11:46Z</time></trkpt>
      <trkpt lat="50.0634706" lon="19.9530882"><ele>198.3</ele><time>2026-09-14T09:11:48Z</time></trkpt>
      <trkpt lat="50.0634412" lon="19.9529265"><ele>197.5</ele><time>2026-09-14T09:11:50Z</time></trkpt>
      <trkpt lat="50.0634118" lon="19.9527647"><ele>196.8</ele><time>2026-09-14T09:11:52Z</time></trkpt>
      <trkpt lat="50.0633824" lon="19.9526029"><ele>196.1</ele><time>2026-09-14T09:11:54Z</time></trkpt>
      <trkpt lat="50.0633529" lon="19.9524412"><ele>195.4</ele><time>2026-09-14T09:11:56Z</time></trkpt>
      <trkpt lat="50.0633235" lon="19.9522794"><ele>194.7</ele><time>2026-09-14T09:11:58Z</time></trkpt>
      <trkpt lat="50.0632941" lon="19.9521176"><ele>194.0</ele><time>2026-09-14T09:12:00Z</time></trkpt>
      <trkpt lat="50.0632647" lon="19.9519559"><ele>193.4</ele><time>2026-09-14T09:12:02Z</time></trkpt>
      <trkpt lat="50.0632353" lon="19.9517941"><ele>192.8</ele><time>2026-09-14T09:12:04Z</time></trkpt>
      <trkpt lat="50.0632059" lon="19.9516324"><ele>192.2</ele><time>2026-09-14T09:12:06Z</time></trkpt>
      <trkpt lat="50.0631765" lon="19.9514706"><ele>191.6</ele><time>2026-09-14T09:12:08Z</time></trkpt>
      <trkpt lat="50.0631471" lon="19.9513088"><ele>191.1</ele><time>2026-09-14T09:12:10Z</time></trkpt>
      <trkpt lat="50.0631176" lon="19.9511471"><ele>190.6</ele><time>2026-09-14T09:12:12Z</time></trkpt>
      <trkpt lat="50.0630882" lon="19.9509853"><ele>190.1</ele><time>2026-09-14T09:12:14Z</time></trkpt>
      <trkpt lat="50.0630588" lon="19.9508235"><ele>189.7</ele><time>2026-09-14T09:12:16Z</time></trkpt>
      <trkpt lat="50.0630294" lon="19.9506618"><ele>189.3</ele><time>2026-09-14T09:12:18Z</time></trkpt>
      <trkpt lat="50.0630000" lon="19.9505000"><ele>188.9</ele><time>2026-09-14T09:12:20Z</time></trkpt>
      <trkpt lat="50.0629706" lon="19.9503382"><ele>188.5</ele><time>2026-09-14T09:12:22Z</time></trkpt>
      <trkpt lat="50.0629412" lon="19.9501765"><ele>188.2</ele><time>2026-09-14T09:12:24Z</time></trkpt>
      <trkpt lat="50.0629118" lon="19.9500147"><ele>187.9</ele><time>2026-09-14T09:12:26Z</time></trkpt>
      <trkpt lat="50.0628824" lon="19.9498529"><ele>187.7</ele><time>2026-09-14T09:12:28Z</time></trkpt>
      <trkpt lat="50.0628529" lon="19.9496912"><ele>187.5</ele><time>2026-09-14T09:12:30Z</time></trkpt>
      <trkpt lat="50.0628235" lon="19.9495294"><ele>187.3</ele><time>2026-09-14T09:12:32Z</time></trkpt>
      <trkpt lat="50.0627941" lon="19.9493676"><ele>187.2</ele><time>2026-09-14T09:12:34Z</time></trkpt>
      <trkpt lat="50.0627647" lon="19.9492059"><ele>187.1</ele><time>2026-09-14T09:12:36Z</time></trkpt>
      <trkpt lat="50.0627353" lon="19.9490441"><ele>187.0</ele><time>2026-09-14T09:12:38Z</time></trkpt>
      <trkpt lat="50.0627059" lon="19.9488824"><ele>187.0</ele><time>2026-09-14T09:12:40Z</time></trkpt>
      <trkpt lat="50.0626765" lon="19.9487206"><ele>187.0</ele><time>2026-09-14T09:12:42Z</time></trkpt>
      <trkpt lat="50.0626471" lon="19.9485588"><ele>187.1</ele><time>2026-09-14T09:12:44Z</time></trkpt>
      <trkpt lat="50.0626176" lon="19.9483971"><ele>187.2</ele><time>2026-09-14T09:12:46Z</time></trkpt>
      <trkpt lat="50.0625882" lon="19.9482353"><ele>187.3</ele><time>2026-09-14T09:12:48Z</time></trkpt>
      <trkpt lat="50.0625588" lon="19.9480735"><ele>187.4</ele><time>2026-09-14T09:12:50Z</time></trkpt>
      <trkpt lat="50.0625294" lon="19.9479118"><ele>187.6</ele><time>2026-09-14T09:12:52Z</time></trkpt>
      <trkpt lat="50.0625000" lon="19.9477500"><ele>187.9</ele><time>2026-09-14T09:12:54Z</time></trkpt>
      <trkpt lat="50.0624706" lon="19.9475882"><ele>188.1</ele><time>2026-09-14T09:12:56Z</time></trkpt>
      <trkpt lat="50.0624412" lon="19.9474265"><ele>188.4</ele><time>2026-09-14T09:12:58Z</time></trkpt>
      <trkpt lat="50.0624118" lon="19.9472647"><ele>188.8</ele><time>2026-09-14T09:13:00Z</time></trkpt>
      <trkpt lat="50.0623824" lon="19.9471029"><ele>189.2</ele><time>2026-09-14T09:13:02Z</time></trkpt>
      <trkpt lat="50.0623529" lon="19.9469412"><ele>189.6</ele><time>2026-09-14T09:13:04Z</time></trkpt>
      <trkpt lat="50.0623235" lon="19.9467794"><ele>190.0</ele><time>2026-09-14T09:13:06Z</time></trkpt>
      <trkpt lat="50.0622941" lon="19.9466176"><ele>190.5</ele><time>2026-09-14T09:13:08Z</time></trkpt>
      <trkpt lat="50.0622647" lon="19.9464559"><ele>191.0</ele><time>2026-09-14T09:13:10Z</time></trkpt>
      <trkpt lat="50.0622353" lon="19.9462941"><ele>191.5</ele><time>2026-09-14T09:13:12Z</time></trkpt>
      <trkpt lat="50.0622059" lon="19.9461324"><ele>192.0</ele><time>2026-09-14T09:13:14Z</time></trkpt>
      <trkpt lat="50.0621765" lon="19.9459706"><ele>192.6</ele><time>2026-09-14T09:13:16Z</time></trkpt>
      <trkpt lat="50.0621471" lon="19.9458088"><ele>193.2</ele><time>2026-09-14T09:13:18Z</time></trkpt>
      <trkpt lat="50.0621176" lon="19.9456471"><ele>193.9</ele><time>2026-09-14T09:13:20Z</time></trkpt>
      <trkpt lat="50.0620882" lon="19.9454853"><ele>194.5</ele><time>2026-09-14T09:13:22Z</time></trkpt>
      <trkpt lat="50.0620588" lon="19.9453235"><ele>195.2</ele><time>2026-09-14T09:13:24Z</time></trkpt>
      <trkpt lat="50.0620294" lon="19.9451618"><ele>195.9</ele><time>2026-09-14T09:13:26Z</time></trkpt>
      <trkpt lat="50.0620000" lon="19.9450000"><ele>196.6</ele><time>2026-09-14T09:13:28Z</time></trkpt>
      <trkpt lat="50.0619273" lon="19.9448727"><ele>197.3</ele><time>2026-09-14T09:13:30Z</time></trkpt>
      <trkpt lat="50.0618545" lon="19.9447455"><ele>198.1</ele><time>2026-09-14T09:13:32Z</time></trkpt>
      <trkpt lat="50.0617818" lon="19.9446182"><ele>198.8</ele><time>2026-09-14T09:13:34Z</time></trkpt>
      <trkpt lat="50.0617091" lon="19.9444909"><ele>199.6</ele><time>2026-09-14T09:13:36Z</time></trkpt>
      <trkpt lat="50.0616364" lon="19.9443636"><ele>200.4</ele><time>2026-09-14T09:13:38Z</time></trkpt>
      <trkpt lat="50.0615636" lon="19.9442364"><ele>201.2</ele><time>2026-09-14T09:13:40Z</time></trkpt>
      <trkpt lat="50.0614909" lon="19.9441091"><ele>202.0</ele><time>2026-09-14T09:13:42Z</time></trkpt>
      <trkpt lat="50.0614182" lon="19.9439818"><ele>202.8</ele><time>2026-09-14T09:13:44Z</time></trkpt>
      <trkpt lat="50.0613455" lon="19.9438545"><ele>203.6</ele><time>2026-09-14T09:13:46Z</time></trkpt>
      <trkpt lat="50.0612727" lon="19.9437273"><ele>204.4</ele><time>2026-09-14T09:13:48Z</time></trkpt>
      <trkpt lat="50.0612000" lon="19.9436000"><ele>205.3</ele><time>2026-09-14T09:13:50Z</time></trkpt>
      <trkpt lat="50.0611273" lon="19.9434727"><ele>206.1</ele><time>2026-09-14T09:13:52Z</time></trkpt>
      <trkpt lat="50.0610545" lon="19.9433455"><ele>206.9</ele><time>2026-09-14T09:13:54Z</time></trkpt>
      <trkpt lat="50.0609818" lon="19.9432182"><ele>207.7</ele><time>2026-09-14T09:13:56Z</time></trkpt>
      <trkpt lat="50.0609091" lon="19.9430909"><ele>208.5</ele><time>2026-09-14T09:13:58Z</time></trkpt>
      <trkpt lat="50.0608364" lon="19.9429636"><ele>209.3</ele><time>2026-09-14T09:14:00Z</time></trkpt>
      <trkpt lat="50.0607636" lon="19.9428364"><ele>210.1</ele><time>2026-09-14T09:14:02Z</time></trkpt>
      <trkpt lat="50.0606909" lon="19.9427091"><ele>210.9</ele><time>2026-09-14T09:14:04Z</time></trkpt>
      <trkpt lat="50.0606182" lon="19.9425818"><ele>211.6</ele><time>2026-09-14T09:14:06Z</time></trkpt>
      <trkpt lat="50.0605455" lon="19.9424545"><ele>212.4</ele><time>2026-09-14T09:14:08Z</time></trkpt>
      <trkpt lat="50.0604727" lon="19.9423273"><ele>213.1</ele><time>2026-09-14T09:14:10Z</time></trkpt>
      <trkpt lat="50.0604000" lon="19.9422000"><ele>213.9</ele><time>2026-09-14T09:14:12Z</time></trkpt>
      <trkpt lat="50.0603273" lon="19.9420727"><ele>214.6</ele><time>2026-09-14T09:14:14Z</time></trkpt>
      <trkpt lat="50.0602545" lon="19.9419455"><ele>215.2</ele><time>2026-09-14T09:14:16Z</time></trkpt>
      <trkpt lat="50.0601818" lon="19.9418182"><ele>215.9</ele><time>2026-09-14T09:14:18Z</time></trkpt>
      <trkpt lat="50.0601091" lon="19.9416909"><ele>216.5</ele><time>2026-09-14T09:14:20Z</time></trkpt>
      <trkpt lat="50.0600364" lon="19.9415636"><ele>217.2</ele><time>2026-09-14T09:14:22Z</time></trkpt>
      <trkpt lat="50.0599636" lon="19.9414364"><ele>217.7</ele><time>2026-09-14T09:14:24Z</time></trkpt>
      <trkpt lat="50.0598909" lon="19.9413091"><ele>218.3</ele><time>2026-09-14T09:14:26Z</time></trkpt>
      <trkpt lat="50.0598182" lon="19.9411818"><ele>218.8</ele><time>2026-09-14T09:14:28Z</time></trkpt>
      <trkpt lat="50.0597455" lon="19.9410545"><ele>219.4</ele><time>2026-09-14T09:14:30Z</time></trkpt>
      <trkpt lat="50.0596727" lon="19.9409273"><ele>219.8</ele><time>2026-09-14T09:14:32Z</time></trkpt>
      <trkpt lat="50.0596000" lon="19.9408000"><ele>220.3</ele><time>2026-09-14T09:14:34Z</time></trkpt>
      <trkpt lat="50.0595273" lon="19.9406727"><ele>220.7</ele><time>2026-09-14T09:14:36Z</time></trkpt>
      <trkpt lat="50.0594545" lon="19.9405455"><ele>221.1</ele><time>2026-09-14T09:14:38Z</time></trkpt>
      <trkpt lat="50.0593818" lon="19.9404182"><ele>221.4</ele><time>2026-09-14T09:14:40Z</time></trkpt>
      <trkpt lat="50.0593091" lon="19.9402909"><ele>221.7</ele><time>2026-09-14T09:14:42Z</time></trkpt>
      <trkpt lat="50.0592364" lon="19.9401636"><ele>222.0</ele><time>2026-09-14T09:14:44Z</time></trkpt>
      <trkpt lat="50.0591636" lon="19.9400364"><ele>222.3</ele><time>2026-09-14T09:14:46Z</time></trkpt>
      <trkpt lat="50.0590909" lon="19.9399091"><ele>222.5</ele><time>2026-09-14T09:14:48Z</time></trkpt>
      <trkpt lat="50.0590182" lon="19.9397818"><ele>222.7</ele><time>2026-09-14T09:14:50Z</time></trkpt>
      <trkpt lat="50.0589455" lon="19.9396545"><ele>222.8</ele><time>2026-09-14T09:14:52Z</time></trkpt>
      <trkpt lat="50.0588727" lon="19.9395273"><ele>222.9</ele><time>2026-09-14T09:14:54Z</time></trkpt>
      <trkpt lat="50.0588000" lon="19.9394000"><ele>223.0</ele><time>2026-09-14T09:14:56Z</time></trkpt>
      <trkpt lat="50.0587273" lon="19.9392727"><ele>223.0</ele><time>2026-09-14T09:14:58Z</time></trkpt>
      <trkpt lat="50.0586545" lon="19.9391455"><ele>223.0</ele><time>2026-09-14T09:15:00Z</time></trkpt>
      <trkpt lat="50.0585818" lon="19.9390182"><ele>222.9</ele><time>2026-09-14T09:15:02Z</time></trkpt>
      <trkpt lat="50.0585091" lon="19.9388909"><ele>222.9</ele><time>2026-09-14T09:15:04Z</time></trkpt>
      <trkpt lat="50.0584364" lon="19.9387636"><ele>222.7</ele><time>2026-09-14T09:15:06Z</time></trkpt>
      <trkpt lat="50.0583636" lon="19.9386364"><ele>222.6</ele><time>2026-09-14T09:15:08Z</time></trkpt>
      <trkpt lat="50.0582909" lon="19.9385091"><ele>222.4</ele><time>2026-09-14T09:15:10Z</time></trkpt>
      <trkpt lat="50.0582182" lon="19.9383818"><ele>222.2</ele><time>2026-09-14T09:15:12Z</time></trkpt>
      <trkpt lat="50.0581455" lon="19.9382545"><ele>221.9</ele><time>2026-09-14T09:15:14Z</time></trkpt>
      <trkpt lat="50.0580727" lon="19.9381273"><ele>221.6</ele><time>2026-09-14T09:15:16Z</time></trkpt>
      <trkpt lat="50.0580000" lon="19.9380000"><ele>221.3</ele><time>2026-09-14T09:15:18Z</time></trkpt>
      <trkpt lat="50.0578947" lon="19.9379474"><ele>220.9</ele><time>2026-09-14T09:15:20Z</time></trkpt>
      <trkpt lat="50.0577895" lon="19.9378947"><ele>220.5</ele><time>2026-09-14T09:15:22Z</time></trkpt>
      <trkpt lat="50.0576842" lon="19.9378421"><ele>220.1</ele><time>2026-09-14T09:15:24Z</time></trkpt>
      <trkpt lat="50.0575789" lon="19.9377895"><ele>219.6</ele><time>2026-09-14T09:15:26Z</time></trkpt>
      <trkpt lat="50.0574737" lon="19.9377368"><ele>219.1</ele><time>2026-09-14T09:15:28Z</time></trkpt>
      <trkpt lat="50.0573684" lon="19.9376842"><ele>218.6</ele><time>2026-09-14T09:15:30Z</time></trkpt>
      <trkpt lat="50.0572632" lon="19.9376316"><ele>218.0</ele><time>2026-09-14T09:15:32Z</time></trkpt>
      <trkpt lat="50.0571579" lon="19.9375789"><ele>217.5</ele><time>2026-09-14T09:15:34Z</time></trkpt>
      <trkpt lat="50.0570526" lon="19.9375263"><ele>216.8</ele><time>2026-09-14T09:15:36Z</time></trkpt>
      <trkpt lat="50.0569474" lon="19.9374737"><ele>216.2</ele><time>2026-09-14T09:15:38Z</time></trkpt>
      <trkpt lat="50.0568421" lon="19.9374211"><ele>215.6</ele><time>2026-09-14T09:15:40Z</time></trkpt>
      <trkpt lat="50.0567368" lon="19.9373684"><ele>214.9</ele><time>2026-09-14T09:15:42Z</time></trkpt>
      <trkpt lat="50.0566316" lon="19.9373158"><ele>214.2</ele><time>2026-09-14T09:15:44Z</time></trkpt>
      <trkpt lat="50.0565263" lon="19.9372632"><ele>213.5</ele><time>2026-09-14T09:15:46Z</time></trkpt>
      <trkpt lat="50.0564211" lon="19.9372105"><ele>212.8</ele><time>2026-09-14T09:15:48Z</time></trkpt>
      <trkpt lat="50.0563158" lon="19.9371579"><ele>212.0</ele><time>2026-09-14T09:15:50Z</time></trkpt>
      <trkpt lat="50.0562105" lon="19.9371053"><ele>211.3</ele><time>2026-09-14T09:15:52Z</time></trkpt>
      <trkpt lat="50.0561053" lon="19.9370526"><ele>210.5</ele><time>2026-09-14T09:15:54Z</time></trkpt>
      <trkpt lat="50.0560000" lon="19.9370000"><ele>209.7</ele><time>2026-09-14T09:15:56Z</time></trkpt>
      <trkpt lat="50.0558947" lon="19.9369474"><ele>208.9</ele><time>2026-09-14T09:15:58Z</time></trkpt>
      <trkpt lat="50.0557895" lon="19.9368947"><ele>208.1</ele><time>2026-09-14T09:16:00Z</time></trkpt>
      <trkpt lat="50.0556842" lon="19.9368421"><ele>207.3</ele><time>2026-09-14T09:16:02Z</time></trkpt>
      <trkpt lat="50.0555789" lon="19.9367895"><ele>206.5</ele><time>2026-09-14T09:16:04Z</time></trkpt>
      <trkpt lat="50.0554737" lon="19.9367368"><ele>205.7</ele><time>2026-09-14T09:16:06Z</time></trkpt>
      <trkpt lat="50.0553684" lon="19.9366842"><ele>204.8</ele><time>2026-09-14T09:16:08Z</time></trkpt>
      <trkpt lat="50.0552632" lon="19.9366316"><ele>204.0</ele><time>2026-09-14T09:16:10Z</time></trkpt>
      <trkpt lat="50.0551579" lon="19.9365789"><ele>203.2</ele><time>2026-09-14T09:16:12Z</time></trkpt>
      <trkpt lat="50.0550526" lon="19.9365263"><ele>202.4</ele><time>2026-09-14T09:16:14Z</time></trkpt>
      <trkpt lat="50.0549474" lon="19.9364737"><ele>201.6</ele><time>2026-09-14T09:16:16Z</time></trkpt>
      <trkpt lat="50.0548421" lon="19.9364211"><ele>200.8</ele><time>2026-09-14T09:16:18Z</time></trkpt>
      <trkpt lat="50.0547368" lon="19.9363684"><ele>200.0</ele><time>2026-09-14T09:16:20Z</time></trkpt>
      <trkpt lat="50.0546316" lon="19.9363158"><ele>199.2</ele><time>2026-09-14T09:16:22Z</time></trkpt>
      <trkpt lat="50.0545263" lon="19.9362632"><ele>198.4</ele><time>2026-09-14T09:16:24Z</time></trkpt>
      <trkpt lat="50.0544211" lon="19.9362105"><ele>197.7</ele><time>2026-09-14T09:16:26Z</time></trkpt>
      <trkpt lat="50.0543158" lon="19.9361579"><ele>197.0</ele><time>2026-09-14T09:16:28Z</time></trkpt>
      <trkpt lat="50.0542105" lon="19.9361053"><ele>196.2</ele><time>2026-09-14T09:16:30Z</time></trkpt>
      <trkpt lat="50.0541053" lon="19.9360526"><ele>195.5</ele><time>2026-09-14T09:16:32Z</time></trkpt>
      <trkpt lat="50.0540000" lon="19.9360000"><ele>194.8</ele><time>2026-09-14T09:16:34Z</time></trkpt>
    </trkseg>
  </trk>
</gpx>
